#dP2018  7 27  0  0  0.00000000      96 __u+U ITR00 FIT  IAC
## 2011 432000.00000000   900.00000000 58326 0.0000000000000
+   86   C01C02C03C04C05C06C07C08C09C10C11C12C13C14E01E02E03
+        E04E05E07E08E09E11E12E14E18E19E24E26E30G01G02G03G04
+        G05G06G07G08G09G10G11G12G13G14G15G16G17G18G19G20G21
+        G22G23G24G25G26G27G28G29G30G31G32J01R01R02R03R04R05
+        R07R08R09R10R11R13R14R15R16R17R18R19R20R21R22R23R24
+        R26  0  0  0  0  0  0  0  0  0  0  0  0  0  0  0  0
++         0  0  0  0  0  0  0  0  0  0  0  0  0  0  0  0  0
++         0  0  0  0  0  0  0  0  0  0  0  0  0  0  0  0  0
++         0  0  0  0  0  0  0  0  0  0  0  0  0  0  0  0  0
++         0  0  0  0  0  0  0  0  0  0  0  0  0  0  0  0  0
++         0  0  0  0  0  0  0  0  0  0  0  0  0  0  0  0  0
++         0  0  0  0  0  0  0  0  0  0  0  0  0  0  0  0  0
%c M  cc GPS ccc cccc cccc cccc cccc ccccc ccccc ccccc ccccc
%c cc cc ccc ccc cccc cccc cccc cccc ccccc ccccc ccccc ccccc
%f  0.0000000  0.000000000  0.00000000000  0.000000000000000
%f  0.0000000  0.000000000  0.00000000000  0.000000000000000
%i    0    0    0    0      0      0      0      0         0
%i    0    0    0    0      0      0      0      0         0
/*                                                          
/*   RSA / INFORMATION & ANALYSIS CENTER (IAC) OF MCC       
/*   ULTRA-RAPID DETERMINATION                              
/* PCV:IGS14_2000 OL/AL:FES2004  NONE     YN ORB:CoN CLK:CoN
*  2018 07 27 22 30  0.00000000
PC01 -32223.924217  27183.537831    915.020557    394.872379
PC02   4419.444894  41917.975995  -1391.431742    -61.285621
PC03 -14763.188950  39475.180088    209.741995   -439.308476
PC04 -39630.919151  14414.304461    323.185800   -253.894200
PC05  21868.291232  36022.209698  -1109.791104    271.752299
PC06  -9924.089188  37094.577858 -16774.489034    124.055422
PC07 -13823.301553  21831.370932  33415.179317     49.054818
PC08 -25292.402699  29545.259236 -16536.484033    457.773877
PC09  -2153.688148  41717.593782  -4067.486132     87.871068
PC10   2914.624153  27663.423874  31904.675922   -420.011361
PC11 -18695.821357  14685.013801  14724.947835   -609.897581
PC12 -14596.544521  -5352.557963  23227.008189    533.732077
PC13 -13612.702181  30635.511442 -25721.014614   -198.211782
PC14 -16670.127154   2970.870991 -22127.792001    308.022341
PE01  -6003.913215  15051.408057  24771.785239   -400.027898
PE02   5983.628227 -15057.013971 -24770.854728     21.181376
PE03   3635.517108 -26486.438547  12701.234071    -59.201725
PE04   9778.900430  27397.615820   5479.260343    -84.121345
PE05  14959.291269 -10049.787102  23490.656860    221.424815
PE07 -17492.033602 -12219.310585 -20497.489389     -9.678540
PE08  -9986.910395 -27312.063663  -5478.224705   6535.415622
PE09  17497.505863  12122.511508  20587.877394   6722.735916
PE11  20300.166176    981.847323 -21535.676537   2971.492161
PE12   4197.547584  17539.050177 -23470.798912   4697.031538
PE14  17782.256534 -21110.606911 -14223.425586   6544.620243
PE18  -7871.627731  24835.451860    883.478840   6027.134986
PE19  -4730.904722  25512.064035 -14231.022707    -13.731084
PE24  27972.630006   9643.033643    739.984206   6578.253245
PE26 -24191.421971  15479.692691   7172.114816   5660.798598
PE30 -15563.175542 -17546.663597 -18062.048368   5643.496679
PG01    896.829632  15355.740667 -21780.890043    -70.176858
PG02  19073.626687 -15551.897647  10244.001286     45.484896
PG03  10062.053826  20929.016739 -12977.266507    112.380849
PG04 -20321.022397  -3658.957892  16613.801215     82.607386
PG05   9755.071610 -11955.596286  21509.941336     -3.990276
PG06  25608.010971  -5660.535785  -4254.292667    382.745030
PG07  17203.991463   8413.134512  18823.036329    151.707940
PG08  -5505.718614  25880.975650    948.379916   -109.644194
PG09   9281.225190  17754.240233  17402.559696    512.769395
PG10 -22209.139626  -8095.766048 -12230.242045    188.264836
PG11  -2084.891824  20553.470307 -17346.868550   -727.970322
PG12  -4547.841856 -20285.323682 -16827.368226    318.101808
PG13  12609.458887 -22149.214439   7352.829081    -91.854488
PG14 -16055.257309  10386.807651 -18052.979871    -97.654173
PG15   1296.928713 -26241.447007  -2214.216628   -349.845268
PG16 -11256.905711   9306.582714  22034.224646     16.043582
PG17  14854.255802     65.068430 -21618.631569    -73.682672
PG18  -8478.370391  17461.054807 -18524.836862     38.769708
PG19  16252.222476  -9822.384436 -18932.965571   -416.798715
PG20 -22796.029640 -13481.244726  -2713.633112    513.147385
PG21 -19962.978633  -5621.495588  17372.726231   -361.297245
PG22   2724.386239  19192.528679 -17927.887202   -471.194010
PG23   2599.665003  24495.970242   9654.672836   -213.807579
PG24   3043.799869 -16986.233275 -20234.844554    -53.171849
PG25 -17003.572556 -19906.125331  -5345.491852   -622.678402
PG26 -18686.955806   1648.738199  18845.165076    -70.177689
PG27 -12025.639179  20405.468574  11664.861422    358.232524
PG28  20947.354800  12453.319499  -9877.733961    734.250990
PG29  -6403.399455 -19506.650144  16826.176063    406.910909
PG30  24078.208982   1699.320147  11290.093878     45.194900
PG31 -25934.789242   6382.641407  -2072.134019    104.759566
PG32 -15542.098357    605.117243 -21478.400061   -465.729998
PJ01 -19782.751046  21903.881933 -25493.721546   -163.832299
PR01  -9468.207518   6024.286177 -22900.491950     29.689865
PR02   2198.425164  21703.768246 -13137.374805    321.800388
PR03  11384.402104  22446.208225   4063.073643    138.864618
PR04  13874.710934   9648.415723  19121.503895    270.135287
PR05   8236.193545  -8507.218339  22589.140089    -46.970245
PR07 -11486.087837 -22365.713874  -4370.838162    -43.428873
PR08 -13902.998688 -10372.631322 -18647.693922     22.078096
PR09   2954.910757 -10762.541889 -22924.426889     20.273704
PR10 -15014.089844 -10440.858917 -17756.306900     28.672056
PR11 -25078.450740  -4246.299178  -1493.086732    -35.908102
PR13  -2892.519577  10519.095899  23041.573022    -12.955962
PR14  15014.408425  10576.747385  17726.684648     29.468061
PR15  24021.011602   6149.502307   5791.759793    -13.761338
PR16  20520.311765  -4441.225365 -14429.107014     97.927671
PR17   1689.119151  13872.750155 -21345.896385    151.333999
PR18  13323.702563   -967.421958 -21735.811308    204.564710
PR19  18010.814569 -15011.813928 -10049.558187    -57.139742
PR20  11762.533715 -20840.647508   8897.024786   -346.655528
PR21  -1979.380165 -13507.164259  21535.168596      5.041537
PR22 -14247.361128   2783.611601  20935.865859    -57.154217
PR23 -17343.798450  17670.866773   6118.239219    168.380412
PR24 -10664.525354  20939.662650  -9939.163120   -169.398725
PR26  11925.308839 -21108.631196   7895.857559     37.075331
EOF
